0 SL-12 R/B(AUX MOTOR)
1 28632U 05010D   18239.98480013  .00011065  00000-0  56038-3 0  9991
2 28632  47.3531 151.9526 5499279 232.6636  63.5798  4.88193331198576
0 APSTAR 6
1 28638U 05012A   18240.51160769 -.00000329  00000-0  00000+0 0  9999
2 28638   0.1892  98.2333 0003117  70.4460 125.9740  1.00271014 73835
0 APSTAR 6
1 28638U 05012A   18240.22037514 -.00000329  00000-0  00000+0 0  9998
2 28638   0.1887  98.2347 0003056  70.1901  21.0904  1.00270432 73834
0 SPACEWAY 1
1 28644U 05015A   18240.17099965 -.00000022  00000-0  00000+0 0  9990
2 28644   0.0315 217.4838 0000172 215.6975 210.9033  1.00127387 48934
0 BLOCK DM-SL R/B
1 28645U 05015B   18240.58680723  .00009224  00000-0  10276-2 0  9995
2 28645   0.2588 210.0317 6794606 303.7849 268.4959  2.93593879129770
0 CARTOSAT-1
1 28649U 05017A   18240.17117709  .00001169  00000-0  14857-3 0  9995
2 28649  97.8196 311.5291 0003108  77.8176 282.3438 14.83481312720768
0 CARTOSAT-1
1 28649U 05017A   18240.84567965  .00000195  00000-0  30054-4 0  9998
2 28649  97.8192 312.1894 0003071  75.2423 284.9086 14.83479350720863
0 CARTOSAT-1
1 28649U 05017A   18240.50842793  .00000921  00000-0  11835-3 0  9998
2 28649  97.8193 311.8594 0003131  76.0031 284.1530 14.83481328720817
0 HAMSAT
1 28650U 05017B   18240.47698980  .00000236  00000-0  30711-4 0  9997
2 28650  97.7058 206.6226 0024695 121.6548 238.7083 14.88976883721234
0 PSLV R/B
1 28651U 05017C   18240.78397666  .00000095  00000-0  21814-4 0  9996
2 28651  97.9256 162.7674 0075381 113.9462 246.9664 14.73409680715007
0 NOAA 18
1 28654U 05018A   18240.50635233 -.00000016  00000-0  16805-4 0  9993
2 28654  99.1396 277.4103 0013287 285.4612  74.5091 14.12383460683989
0 DIRECTV 8
1 28659U 05019A   18240.34543189 -.00000125  00000-0  00000+0 0  9995
2 28659   0.0128 106.4998 0003227  56.8609 196.6499  1.00269783 48617
0 SL-12 R/B(2)
1 28704U 05023H   18239.99417265 -.00000257  00000-0  00000+0 0  9991
2 28704   9.8753  38.5300 0016358 262.9305 112.0970  1.00818617 48480
0 EXPRESS AM-3
1 28707U 05023A   18240.24166645 -.00000332  00000-0  00000+0 0  9991
2 28707   0.3300  95.0762 0001444  30.3912  40.9446  1.00270246 48261
0 SJ-7
1 28737U 05024A   18240.49147057  .00001258  00000-0  11722-3 0  9992
2 28737  97.6644 242.6866 0032074 293.0567  66.7277 14.95690817720315
0 SJ-7
1 28737U 05024A   18240.15697024  .00001244  00000-0  11598-3 0  9995
2 28737  97.6640 242.3587 0032118 294.2812  65.5088 14.95689803720267
0 SJ-7
1 28737U 05024A   18240.75907152  .00001196  00000-0  11169-3 0  9997
2 28737  97.6644 242.9477 0032041 292.0683  67.7106 14.95690558720356
0 CZ-2D R/B
1 28738U 05024B   18240.15790736  .00000438  00000-0  29483-4 0  9997
2 28738  97.4489 272.2032 0010678 304.1795  55.8423 15.11602931721815
0 ASTRO E2
1 28773U 05025A   18240.69554213  .00001193  00000-0  55115-4 0  9994
2 28773  31.3835 337.2097 0004562  60.5367 299.5735 15.16661749723814
0 CZ-2D DEB
1 28785U 05024G   18240.69180525  .00005208  00000-0  36101-3 0  9991
2 28785  97.7908  33.6328 0099407 131.4890 229.4921 15.02081808703756
0 IPSTAR 1
1 28786U 05028A   18240.84329076 -.00000372  00000-0  00000+0 0  9992
2 28786   0.0253 126.0254 0002333  36.6784 237.3782  1.00269463 47754
0 IPSTAR 1
1 28786U 05028A   18240.29979897 -.00000373  00000-0  00000+0 0  9994
2 28786   0.0266 125.3231 0002354  35.0006  43.5631  1.00269316 47744
0 GALAXY 14
1 28790U 05030A   18240.67129709  .00000027  00000-0  00000+0 0  9998
2 28790   0.0425 295.6769 0002569 228.9348 288.8922  1.00272588 47734
0 SCOUT B DEB
1 28799U 65063J   18240.17958515  .00000561  00000-0  36168-2 0  9999
2 28799  69.1782 149.4233 0739527 107.2432 330.3470 11.94274854597330
0 OICETS
1 28809U 05031A   18240.80781308  .00000172  00000-0  18925-4 0  9995
2 28809  97.9570 327.3888 0013520 291.4969  68.4811 15.00021447709734
0 INDEX
1 28810U 05031B   18240.10197656  .00000126  00000-0  19271-4 0  9991
2 28810  98.1813 239.3887 0027768 189.0082 171.0640 14.90264769705143
0 SL-24 DEB
1 28813U 05031E   18239.99883573  .00001180  00000-0  67973-4 0  9992
2 28813  98.0129  11.6308 0012639 327.7741 169.4842 15.14530640712771
0 MONITOR-E 1
1 28822U 05032A   18240.63789673  .00014542  00000-0  15930-3 0  9993
2 28822  97.1132 261.4032 0004258  93.9812 266.1934 15.63359164724014
0 MONITOR-E 1
1 28822U 05032A   18240.12583319  .00011390  00000-0  12515-3 0  9990
2 28822  97.1133 260.8876 0004240  94.6865 265.4879 15.63341351723930
0 MONITOR-E 1
1 28822U 05032A   18240.50988081  .00010787  00000-0  11854-3 0  9991
2 28822  97.1132 261.2744 0004246  94.1383 266.0361 15.63352458723993
0 PSLV DEB
1 28850U 01049PC  18240.86294044  .00008022  00000-0  31662-3 0  9992
2 28850  97.6310 262.4922 0015399 102.4069 257.8893 15.25709798771030
0 PSLV DEB
1 28853U 01049PF  18240.13649483  .00000251  00000-0  37163-4 0  9995
2 28853  98.0010 207.6248 0035236 229.2960 187.1424 14.83323367781951
0 PSLV DEB
1 28855U 01049PH  18240.17548235  .00000998  00000-0  10250-3 0  9999
2 28855  97.7461 222.4070 0001862  96.9923 263.1508 14.92581893873818
0 ANIK F1-R
1 28868U 05036A   18240.67487377 -.00000084  00000-0  00000+0 0  9992
2 28868   0.0123  74.6319 0001612  46.7499 351.0860  1.00271859 47589
0 BREEZE-M R/B
1 28869U 05036B   18239.70212339 -.00000117  00000-0  00000+0 0  9996
2 28869  10.1561  50.5877 6278530 127.6281 307.8610  2.10740352 99848
0 NAVSTAR 57 (USA 183)
1 28874U 05038A   18240.51151779 -.00000058  00000-0  00000+0 0  9999
2 28874  56.3368  25.9741 0127386 258.3364 122.8154  2.00572160 94670
0 GALAXY 15
1 28884U 05041A   18240.16716128  .00000068  00000-0  00000+0 0  9990
2 28884   0.0489 276.7918 0001693 242.5468 104.1614  1.00272621 47046
0 SYRACUSE 3A
1 28885U 05041B   18240.13130736  .00000119  00000-0  00000+0 0  9990
2 28885   0.0117 133.2597 0003090  17.5521 279.7451  1.00270208 47157
0 ARIANE 5 R/B
1 28886U 05041C   18240.63268720 -.00000051  00000-0 -28949-3 0  9994
2 28886   7.4555 198.2949 7187863  61.0285 113.5756  2.24335691105553
0 BEIJING 1 (TSINGHUA)
1 28890U 05043A   18240.84524321  .00000030  00000-0  15141-4 0  9992
2 28890  97.9385  22.5191 0014634 208.3557 151.6853 14.61231337684332
0 BEIJING 1 (TSINGHUA)
1 28890U 05043A   18240.22895488 -.00000004  00000-0  82906-5 0  9995
2 28890  97.9382  21.9278 0014636 210.3705 149.6643 14.61230902684249
0 BEIJING 1 (TSINGHUA)
1 28890U 05043A   18240.57133744  .00000013  00000-0  11795-4 0  9999
2 28890  97.9383  22.2561 0014624 209.3446 150.6941 14.61231119684295
0 TOPSAT
1 28891U 05043B   18240.12155200  .00000086  00000-0  26558-4 0  9995
2 28891  97.9476  21.7407 0015536 216.4213 143.5911 14.61342303684168
0 TOPSAT
1 28891U 05043B   18240.46390862  .00000079  00000-0  25046-4 0  9990
2 28891  97.9476  22.0694 0015551 215.3022 144.7142 14.61342378684210
0 TOPSAT
1 28891U 05043B   18240.73779411  .00000071  00000-0  23544-4 0  9994
2 28891  97.9480  22.3327 0015612 214.0839 145.9374 14.61342395684254
0 UWE-1
1 28892U 05043C   18240.39261341  .00000163  00000-0  40184-4 0  9996
2 28892  97.9256  27.7844 0015933 196.6684 163.3997 14.63518152684532
0 SINAH 1
1 28893U 05043D   18240.44559978 -.00000007  00000-0  75819-5 0  9991
2 28893  97.9326  24.1104 0014550 210.8305 149.2044 14.61481383684320
0 SSETI-EXPRESS
1 28894U 05043E   18239.98419433  .00000022  00000-0  13458-4 0  9996
2 28894  97.9408  22.9944 0016229 218.7397 141.2642 14.61535707684138
0 CUBESAT XI 5
1 28895U 05043F   18240.40384772  .00000129  00000-0  33566-4 0  9993
2 28895  97.9189  28.9740 0016437 196.7073 163.3591 14.63574396684443
0 SSETI-EXPRESS DEB
1 28897U 05043H   18240.66004049  .00000158  00000-0  38717-4 0  9994
2 28897  97.9155  29.7432 0015849 190.5318 297.8668 14.64025969676879
0 MOZ.5/SAFIR/RUBIN 5/SL-8
1 28898U 05043G   18239.95269060  .00000084  00000-0  26707-4 0  9995
2 28898  97.9888  17.3207 0018484 255.5875 104.3274 14.60296353683577
0 INMARSAT 4-F2
1 28899U 05044A   18239.94616779  .00000002  00000-0  00000+0 0  9992
2 28899   2.7021  20.1642 0003453 151.1367 209.3399  1.00271741 46923
0 BLOCK DM-SL R/B
1 28900U 05044B   18240.30880086  .00000342  00000-0  22173-3 0  9997
2 28900   3.2033  27.7211 7100914 218.7417  59.4549  2.49153705111335
0 TELKOM 2
1 28902U 05046A   18240.15320355 -.00000149  00000-0  00000+0 0  9999
2 28902   0.0166 210.5540 0001013 234.2542 103.6502  1.00271294 46665
0 SPACEWAY 2
1 28903U 05046B   18240.63565043 -.00000137  00000-0  00000+0 0  9995
2 28903   0.0179 315.2273 0000099 229.8134 281.5140  1.00274085 46920
0 ARIANE 5 DEB (SYLDA)
1 28905U 05046D   18240.18237004  .00014011  00000-0  27217-2 0  9997
2 28905   7.0602   1.7541 6037446 207.5102 100.2679  3.98758678141570
0 GONETS D1M 1
1 28909U 05048B   18240.47025581  .00000002  00000-0 -50398-4 0  9994
2 28909  82.4719 331.3782 0007611  48.7418 311.4323 12.55173743581150
0 SL-8 R/B
1 28910U 05048C   18240.85783914  .00000041  00000-0  19136-3 0  9995
2 28910  82.4711 332.9298 0016116 333.1571 136.1609 12.54915616581010
0 INSAT 4A
1 28911U 05049A   18239.83597838 -.00000176  00000-0  00000+0 0  9997
2 28911   0.0924 272.8440 0003922 300.9362 146.1962  1.00272188 46518
0 METEOSAT 9 (MSG 2)
1 28912U 05049B   18240.30033194  .00000009  00000-0  00000+0 0  9996
2 28912   3.0613  71.6583 0000758  50.5086 325.6587  1.00273887 46508
0 ARIANE 5 R/B
1 28913U 05049C   18240.50776177 -.00000198  00000-0 -88774-3 0  9993
2 28913   4.0595 305.0981 7154331  19.8801   8.2763  2.24861600104241
0 COSMOS 2419 (GLONASS)
1 28915U 05050A   18240.03406505 -.00000009  00000-0  00000+0 0  9992
2 28915  65.7089  51.1659 0016208 351.0442  70.3975  2.13107367 98643
